[{"OBJECT_NAME":"TRANSPORTER-12 OBJECT G","OBJECT_ID":"2025-009G","EPOCH":"2026-03-09T17:57:00.262080","MEAN_MOTION":15.24410621,"ECCENTRICITY":0.00052883,"INCLINATION":97.3986,"RA_OF_ASC_NODE":149.8908,"ARG_OF_PERICENTER":330.1708,"MEAN_ANOMALY":29.9228,"EPHEMERIS_TYPE":0,"CLASSIFICATION_TYPE":"U","NORAD_CAT_ID":62615,"ELEMENT_SET_NO":999,"REV_AT_EPOCH":6364,"BSTAR":0.00034372065,"MEAN_MOTION_DOT":8.362e-5,"MEAN_MOTION_DDOT":0},{"OBJECT_NAME":"COSMOS 886 DEB","OBJECT_ID":"1976-126AL","EPOCH":"2026-03-09T21:13:20.080416","MEAN_MOTION":13.32330466,"ECCENTRICITY":0.08525222,"INCLINATION":65.8124,"RA_OF_ASC_NODE":304.1373,"ARG_OF_PERICENTER":74.0234,"MEAN_ANOMALY":295.2959,"EPHEMERIS_TYPE":0,"CLASSIFICATION_TYPE":"U","NORAD_CAT_ID":9824,"ELEMENT_SET_NO":999,"REV_AT_EPOCH":34144,"BSTAR":0.00076028605,"MEAN_MOTION_DOT":3.095e-5,"MEAN_MOTION_DDOT":0}]
